{"type": "FeatureCollection", "features": [ {"type": "Feature", "properties": {"norad_id": 42917, "name": "QZS-3 (QZSS/PRN 199)", "group": "gnss", "lat": -0.021979482586746195, "lon": 80.4052732133069, "alt_km": 35794.82966278285, "timestamp": "2025-12-08T15:42:50.033555+00:00", "meta": {"OBJECT_NAME": "QZS-3 (QZSS/PRN 199)", "OBJECT_ID": "2017-048A", "EPOCH": "2025-12-08T07:21:35.625312", "MEAN_MOTION": 1.00273809, "ECCENTRICITY": 0.00021882, "INCLINATION": 0.0656, "RA_OF_ASC_NODE": 208.7923, "ARG_OF_PERICENTER": 54.1722, "MEAN_ANOMALY": 51.7887, "EPHEMERIS_TYPE": 0, "CLASSIFICATION_TYPE": "U", "NORAD_CAT_ID": 42917, "ELEMENT_SET_NO": 999, "REV_AT_EPOCH": 3034, "BSTAR": 0, "MEAN_MOTION_DOT": -3.45e-06, "MEAN_MOTION_DDOT": 0}, "tle": {"line1": "1 42917U 17048A   25342.30666233 -.00000345  00000+0  00000+0 0  9999", "line2": "2 42917   0.0656 208.7923 0002188  54.1722  51.7887  1.00273809 30349"}}, "geometry": {"type": "Point", "coordinates": [80.4052732133069, -0.021979482586746195]}}, {"type": "Feature", "properties": {"norad_id": 42939, "name": "COSMOS 2522 (752)", "group": "gnss", "lat": 34.47207026513254, "lon": -142.1171138053177, "alt_km": 19142.331785125236, "timestamp": "2025-12-08T15:42:50.033567+00:00", "meta": {"OBJECT_NAME": "COSMOS 2522 (752)", "OBJECT_ID": "2017-055A", "EPOCH": "2025-12-07T04:42:21.698208", "MEAN_MOTION": 2.13101873, "ECCENTRICITY": 0.00064632, "INCLINATION": 64.0758, "RA_OF_ASC_NODE": 198.418, "ARG_OF_PERICENTER": 225.3159, "MEAN_ANOMALY": 134.7149, "EPHEMERIS_TYPE": 0, "CLASSIFICATION_TYPE": "U", "NORAD_CAT_ID": 42939, "ELEMENT_SET_NO": 999, "REV_AT_EPOCH": 6388, "BSTAR": 0, "MEAN_MOTION_DOT": 6.1e-07, "MEAN_MOTION_DDOT": 0}, "tle": {"line1": "1 42939U 17055A   25341.19608447  .00000061  00000+0  00000+0 0  9994", "line2": "2 42939  64.0758 198.4180 0006463 225.3159 134.7149  2.13101873 63886"}}, "geometry": {"type": "Point", "coordinates": [-142.1171138053177, 34.47207026513254]}}, {"type": "Feature", "properties": {"norad_id": 42965, "name": "QZS-4 (QZSS/PRN 195)", "group": "gnss", "lat": 39.08306314407889, "lon": 92.02387170257495, "alt_km": 38906.61549392932, "timestamp": "2025-12-08T15:42:50.033578+00:00", "meta": {"OBJECT_NAME": "QZS-4 (QZSS/PRN 195)", "OBJECT_ID": "2017-062A", "EPOCH": "2025-12-07T21:05:53.129760", "MEAN_MOTION": 1.0025358, "ECCENTRICITY": 0.07523887, "INCLINATION": 40.2283, "RA_OF_ASC_NODE": 345.9325, "ARG_OF_PERICENTER": 271.4244, "MEAN_ANOMALY": 272.796, "EPHEMERIS_TYPE": 0, "CLASSIFICATION_TYPE": "U", "NORAD_CAT_ID": 42965, "ELEMENT_SET_NO": 999, "REV_AT_EPOCH": 2988, "BSTAR": 0, "MEAN_MOTION_DOT": -3.49e-06, "MEAN_MOTION_DDOT": 0}, "tle": {"line1": "1 42965U 17062A   25341.87908715 -.00000349  00000+0  00000+0 0  9997", "line2": "2 42965  40.2283 345.9325 0752388 271.4244 272.7960  1.00253580 29889"}}, "geometry": {"type": "Point", "coordinates": [92.02387170257495, 39.08306314407889]}}, {"type": "Feature", "properties": {"norad_id": 43001, "name": "BEIDOU-3 M1 (C19)", "group": "gnss", "lat": 56.291968379388464, "lon": 167.30246722338782, "alt_km": 21543.588378820772, "timestamp": "2025-12-08T15:42:50.033593+00:00", "meta": {"OBJECT_NAME": "BEIDOU-3 M1 (C19)", "OBJECT_ID": "2017-069A", "EPOCH": "2025-12-07T10:33:38.997216", "MEAN_MOTION": 1.86230818, "ECCENTRICITY": 0.00090499, "INCLINATION": 56.5227, "RA_OF_ASC_NODE": 69.4088, "ARG_OF_PERICENTER": 303.7178, "MEAN_ANOMALY": 56.2144, "EPHEMERIS_TYPE": 0, "CLASSIFICATION_TYPE": "U", "NORAD_CAT_ID": 43001, "ELEMENT_SET_NO": 999, "REV_AT_EPOCH": 5503, "BSTAR": 0, "MEAN_MOTION_DOT": -4.4e-07, "MEAN_MOTION_DDOT": 0}, "tle": {"line1": "1 43001U 17069A   25341.44003469 -.00000044  00000+0  00000+0 0  9993", "line2": "2 43001  56.5227  69.4088 0009049 303.7178  56.2144  1.86230818 55035"}}, "geometry": {"type": "Point", "coordinates": [167.30246722338782, 56.291968379388464]}}, {"type": "Feature", "properties": {"norad_id": 43002, "name": "BEIDOU-3 M2 (C20)", "group": "gnss", "lat": 35.6006187868068, "lon": -138.81951661271503, "alt_km": 21540.930087761175, "timestamp": "2025-12-08T15:42:50.033604+00:00", "meta": {"OBJECT_NAME": "BEIDOU-3 M2 (C20)", "OBJECT_ID": "2017-069B", "EPOCH": "2025-12-07T21:58:05.782944", "MEAN_MOTION": 1.86230666, "ECCENTRICITY": 0.00063719, "INCLINATION": 56.5222, "RA_OF_ASC_NODE": 69.4295, "ARG_OF_PERICENTER": 330.8789, "MEAN_ANOMALY": 29.1054, "EPHEMERIS_TYPE": 0, "CLASSIFICATION_TYPE": "U", "NORAD_CAT_ID": 43002, "ELEMENT_SET_NO": 999, "REV_AT_EPOCH": 5503, "BSTAR": 0, "MEAN_MOTION_DOT": -4.4e-07, "MEAN_MOTION_DDOT": 0}, "tle": {"line1": "1 43002U 17069B   25341.91534471 -.00000044  00000+0  00000+0 0  9998", "line2": "2 43002  56.5222  69.4295 0006371 330.8789  29.1054  1.86230666 55035"}}, "geometry": {"type": "Point", "coordinates": [-138.81951661271503, 35.6006187868068]}}, {"type": "Feature", "properties": {"norad_id": 43055, "name": "GSAT0215 (GALILEO 19)", "group": "gnss", "lat": 7.596551820928739, "lon": 41.43025123955666, "alt_km": 23227.26252800542, "timestamp": "2025-12-08T15:42:50.033616+00:00", "meta": {"OBJECT_NAME": "GSAT0215 (GALILEO 19)", "OBJECT_ID": "2017-079A", "EPOCH": "2025-12-06T00:43:24.455424", "MEAN_MOTION": 1.70473755, "ECCENTRICITY": 0.00048437, "INCLINATION": 55.1369, "RA_OF_ASC_NODE": 226.8228, "ARG_OF_PERICENTER": 284.5496, "MEAN_ANOMALY": 75.4946, "EPHEMERIS_TYPE": 0, "CLASSIFICATION_TYPE": "U", "NORAD_CAT_ID": 43055, "ELEMENT_SET_NO": 999, "REV_AT_EPOCH": 4969, "BSTAR": 0, "MEAN_MOTION_DOT": 3.4e-07, "MEAN_MOTION_DDOT": 0}, "tle": {"line1": "1 43055U 17079A   25340.03014416  .00000034  00000+0  00000+0 0  9999", "line2": "2 43055  55.1369 226.8228 0004843 284.5496  75.4946  1.70473755 49697"}}, "geometry": {"type": "Point", "coordinates": [41.43025123955666, 7.596551820928739]}}, {"type": "Feature", "properties": {"norad_id": 43056, "name": "GSAT0216 (GALILEO 20)", "group": "gnss", "lat": -6.623251454738819, "lon": -137.87956028460354, "alt_km": 23217.11376735619, "timestamp": "2025-12-08T15:42:50.033627+00:00", "meta": {"OBJECT_NAME": "GSAT0216 (GALILEO 20)", "OBJECT_ID": "2017-079B", "EPOCH": "2025-12-07T11:52:26.276448", "MEAN_MOTION": 1.7047388, "ECCENTRICITY": 0.00025242, "INCLINATION": 55.1322, "RA_OF_ASC_NODE": 226.7823, "ARG_OF_PERICENTER": 318.0138, "MEAN_ANOMALY": 42.0613, "EPHEMERIS_TYPE": 0, "CLASSIFICATION_TYPE": "U", "NORAD_CAT_ID": 43056, "ELEMENT_SET_NO": 999, "REV_AT_EPOCH": 4973, "BSTAR": 0, "MEAN_MOTION_DOT": 2.4e-07, "MEAN_MOTION_DDOT": 0}, "tle": {"line1": "1 43056U 17079B   25341.49474857  .00000024  00000+0  00000+0 0  9999", "line2": "2 43056  55.1322 226.7823 0002524 318.0138  42.0613  1.70473880 49732"}}, "geometry": {"type": "Point", "coordinates": [-137.87956028460354, -6.623251454738819]}}, {"type": "Feature", "properties": {"norad_id": 43057, "name": "GSAT0217 (GALILEO 21)", "group": "gnss", "lat": -29.194398146544682, "lon": 69.66642275906833, "alt_km": 23230.703565933265, "timestamp": "2025-12-08T15:42:50.033638+00:00", "meta": {"OBJECT_NAME": "GSAT0217 (GALILEO 21)", "OBJECT_ID": "2017-079C", "EPOCH": "2025-12-05T22:56:13.502976", "MEAN_MOTION": 1.70473847, "ECCENTRICITY": 0.00027948, "INCLINATION": 55.1308, "RA_OF_ASC_NODE": 226.8227, "ARG_OF_PERICENTER": 341.4584, "MEAN_ANOMALY": 18.6294, "EPHEMERIS_TYPE": 0, "CLASSIFICATION_TYPE": "U", "NORAD_CAT_ID": 43057, "ELEMENT_SET_NO": 999, "REV_AT_EPOCH": 4969, "BSTAR": 0, "MEAN_MOTION_DOT": 3.5e-07, "MEAN_MOTION_DDOT": 0}, "tle": {"line1": "1 43057U 17079C   25339.95571184  .00000035  00000+0  00000+0 0  9991", "line2": "2 43057  55.1308 226.8227 0002794 341.4584  18.6294  1.70473847 49692"}}, "geometry": {"type": "Point", "coordinates": [69.66642275906833, -29.194398146544682]}}, {"type": "Feature", "properties": {"norad_id": 43058, "name": "GSAT0218 (GALILEO 22)", "group": "gnss", "lat": 54.22991030491362, "lon": -58.005015271834665, "alt_km": 23221.93111163234, "timestamp": "2025-12-08T15:42:50.033651+00:00", "meta": {"OBJECT_NAME": "GSAT0218 (GALILEO 22)", "OBJECT_ID": "2017-079D", "EPOCH": "2025-12-06T18:17:46.482720", "MEAN_MOTION": 1.70473862, "ECCENTRICITY": 0.00028449, "INCLINATION": 55.1307, "RA_OF_ASC_NODE": 226.7982, "ARG_OF_PERICENTER": 305.5375, "MEAN_ANOMALY": 54.5328, "EPHEMERIS_TYPE": 0, "CLASSIFICATION_TYPE": "U", "NORAD_CAT_ID": 43058, "ELEMENT_SET_NO": 999, "REV_AT_EPOCH": 4973, "BSTAR": 0, "MEAN_MOTION_DOT": 2.9e-07, "MEAN_MOTION_DDOT": 0}, "tle": {"line1": "1 43058U 17079D   25340.76234355  .00000029  00000+0  00000+0 0  9992", "line2": "2 43058  55.1307 226.7982 0002844 305.5375  54.5328  1.70473862 49733"}}, "geometry": {"type": "Point", "coordinates": [-58.005015271834665, 54.22991030491362]}}, {"type": "Feature", "properties": {"norad_id": 43107, "name": "BEIDOU-3 M7 (C27)", "group": "gnss", "lat": -39.912610027427064, "lon": -87.69308291238022, "alt_km": 21536.58410192537, "timestamp": "2025-12-08T15:42:50.033662+00:00", "meta": {"OBJECT_NAME": "BEIDOU-3 M7 (C27)", "OBJECT_ID": "2018-003A", "EPOCH": "2025-12-08T04:41:21.323616", "MEAN_MOTION": 1.86232307, "ECCENTRICITY": 0.00027231, "INCLINATION": 54.5008, "RA_OF_ASC_NODE": 308.973, "ARG_OF_PERICENTER": 69.0178, "MEAN_ANOMALY": 290.9986, "EPHEMERIS_TYPE": 0, "CLASSIFICATION_TYPE": "U", "NORAD_CAT_ID": 43107, "ELEMENT_SET_NO": 999, "REV_AT_EPOCH": 5379, "BSTAR": 0, "MEAN_MOTION_DOT": -7.3e-07, "MEAN_MOTION_DDOT": 0}, "tle": {"line1": "1 43107U 18003A   25342.19538569 -.00000073  00000+0  00000+0 0  9998", "line2": "2 43107  54.5008 308.9730 0002723  69.0178 290.9986  1.86232307 53793"}}, "geometry": {"type": "Point", "coordinates": [-87.69308291238022, -39.912610027427064]}}]}